{"type": "FeatureCollection", "features": [ {"type": "Feature", "properties": {"norad_id": 36167, "name": "FENGYUN 1C DEB", "group": "fengyun-1c-debris", "lat": 70.36077632650954, "lon": 109.21274484277482, "alt_km": 736.7508398407754, "timestamp": "2025-12-21T20:41:08.247786+00:00", "meta": {"OBJECT_NAME": "FENGYUN 1C DEB", "OBJECT_ID": "1999-025DSQ", "EPOCH": "2025-12-17T11:47:54.147552", "MEAN_MOTION": 14.49287651, "ECCENTRICITY": 0.00687849, "INCLINATION": 98.8138, "RA_OF_ASC_NODE": 258.8768, "ARG_OF_PERICENTER": 229.85, "MEAN_ANOMALY": 129.6655, "EPHEMERIS_TYPE": 0, "CLASSIFICATION_TYPE": "U", "NORAD_CAT_ID": 36167, "ELEMENT_SET_NO": 999, "REV_AT_EPOCH": 67348, "BSTAR": 0.00077424879, "MEAN_MOTION_DOT": 2.993e-05, "MEAN_MOTION_DDOT": 0}, "tle": {"line1": "1 36167U 99025DSQ 25351.49159893  .00002993  00000+0  77425-3 0  9992", "line2": "2 36167  98.8138 258.8768 0068784 229.8500 129.6655 14.49287651673484"}}, "geometry": {"type": "Point", "coordinates": [109.21274484277482, 70.36077632650954]}}, {"type": "Feature", "properties": {"norad_id": 36173, "name": "FENGYUN 1C DEB", "group": "fengyun-1c-debris", "lat": 81.3216208889282, "lon": -156.43326912501044, "alt_km": 755.2322563133484, "timestamp": "2025-12-21T20:41:08.247796+00:00", "meta": {"OBJECT_NAME": "FENGYUN 1C DEB", "OBJECT_ID": "1999-025DSW", "EPOCH": "2025-12-18T02:56:35.345184", "MEAN_MOTION": 14.25179556, "ECCENTRICITY": 0.01470218, "INCLINATION": 98.2148, "RA_OF_ASC_NODE": 308.903, "ARG_OF_PERICENTER": 169.2435, "MEAN_ANOMALY": 191.195, "EPHEMERIS_TYPE": 0, "CLASSIFICATION_TYPE": "U", "NORAD_CAT_ID": 36173, "ELEMENT_SET_NO": 999, "REV_AT_EPOCH": 59167, "BSTAR": 0.00018691644, "MEAN_MOTION_DOT": 4.51e-06, "MEAN_MOTION_DDOT": 0}, "tle": {"line1": "1 36173U 99025DSW 25352.12263131  .00000451  00000+0  18692-3 0  9999", "line2": "2 36173  98.2148 308.9030 0147021 169.2435 191.1950 14.25179556591671"}}, "geometry": {"type": "Point", "coordinates": [-156.43326912501044, 81.3216208889282]}}, {"type": "Feature", "properties": {"norad_id": 36180, "name": "FENGYUN 1C DEB", "group": "fengyun-1c-debris", "lat": -73.96224223377823, "lon": 90.26406045761442, "alt_km": 802.4629625078014, "timestamp": "2025-12-21T20:41:08.247805+00:00", "meta": {"OBJECT_NAME": "FENGYUN 1C DEB", "OBJECT_ID": "1999-025DTD", "EPOCH": "2025-12-05T21:21:22.276224", "MEAN_MOTION": 14.20680074, "ECCENTRICITY": 0.02106275, "INCLINATION": 98.4572, "RA_OF_ASC_NODE": 43.7979, "ARG_OF_PERICENTER": 50.8055, "MEAN_ANOMALY": 311.1621, "EPHEMERIS_TYPE": 0, "CLASSIFICATION_TYPE": "U", "NORAD_CAT_ID": 36180, "ELEMENT_SET_NO": 999, "REV_AT_EPOCH": 70486, "BSTAR": 0.00091841135, "MEAN_MOTION_DOT": 2.432e-05, "MEAN_MOTION_DDOT": 0}, "tle": {"line1": "1 36180U 99025DTD 25339.88984116  .00002432  00000+0  91841-3 0  9996", "line2": "2 36180  98.4572  43.7979 0210627  50.8055 311.1621 14.20680074704867"}}, "geometry": {"type": "Point", "coordinates": [90.26406045761442, -73.96224223377823]}}, {"type": "Feature", "properties": {"norad_id": 36182, "name": "FENGYUN 1C DEB", "group": "fengyun-1c-debris", "lat": -79.29102009766918, "lon": 46.05093146720617, "alt_km": 796.3296352223551, "timestamp": "2025-12-21T20:41:08.247814+00:00", "meta": {"OBJECT_NAME": "FENGYUN 1C DEB", "OBJECT_ID": "1999-025DTF", "EPOCH": "2025-12-21T06:04:05.893536", "MEAN_MOTION": 14.34784187, "ECCENTRICITY": 0.0022294, "INCLINATION": 99.0897, "RA_OF_ASC_NODE": 283.2478, "ARG_OF_PERICENTER": 52.3157, "MEAN_ANOMALY": 308.0044, "EPHEMERIS_TYPE": 0, "CLASSIFICATION_TYPE": "U", "NORAD_CAT_ID": 36182, "ELEMENT_SET_NO": 999, "REV_AT_EPOCH": 88079, "BSTAR": 0.0010883654, "MEAN_MOTION_DOT": 3.048e-05, "MEAN_MOTION_DDOT": 0}, "tle": {"line1": "1 36182U 99025DTF 25355.25284599  .00003048  00000+0  10884-2 0  9996", "line2": "2 36182  99.0897 283.2478 0022294  52.3157 308.0044 14.34784187880798"}}, "geometry": {"type": "Point", "coordinates": [46.05093146720617, -79.29102009766918]}}, {"type": "Feature", "properties": {"norad_id": 36186, "name": "FENGYUN 1C DEB", "group": "fengyun-1c-debris", "lat": 2.030732053729221, "lon": 41.11926223651022, "alt_km": 531.2488264473532, "timestamp": "2025-12-21T20:41:08.247823+00:00", "meta": {"OBJECT_NAME": "FENGYUN 1C DEB", "OBJECT_ID": "1999-025DTK", "EPOCH": "2025-12-15T21:11:23.031744", "MEAN_MOTION": 15.12863238, "ECCENTRICITY": 0.00117449, "INCLINATION": 98.9868, "RA_OF_ASC_NODE": 213.7545, "ARG_OF_PERICENTER": 332.6772, "MEAN_ANOMALY": 45.2682, "EPHEMERIS_TYPE": 0, "CLASSIFICATION_TYPE": "U", "NORAD_CAT_ID": 36186, "ELEMENT_SET_NO": 999, "REV_AT_EPOCH": 61618, "BSTAR": 0.0071053274, "MEAN_MOTION_DOT": 0.00127217, "MEAN_MOTION_DDOT": 0}, "tle": {"line1": "1 36186U 99025DTK 25349.88290546  .00127217  00000+0  71053-2 0  9991", "line2": "2 36186  98.9868 213.7545 0011744 332.6772  45.2682 15.12863238616186"}}, "geometry": {"type": "Point", "coordinates": [41.11926223651022, 2.030732053729221]}}, {"type": "Feature", "properties": {"norad_id": 36188, "name": "FENGYUN 1C DEB", "group": "fengyun-1c-debris", "lat": 74.77384360975208, "lon": -49.67179898217642, "alt_km": 716.874132037643, "timestamp": "2025-12-21T20:41:08.247833+00:00", "meta": {"OBJECT_NAME": "FENGYUN 1C DEB", "OBJECT_ID": "1999-025DTM", "EPOCH": "2025-12-16T00:29:05.104608", "MEAN_MOTION": 14.60761478, "ECCENTRICITY": 0.00478894, "INCLINATION": 98.5849, "RA_OF_ASC_NODE": 90.5626, "ARG_OF_PERICENTER": 294.3883, "MEAN_ANOMALY": 65.2322, "EPHEMERIS_TYPE": 0, "CLASSIFICATION_TYPE": "U", "NORAD_CAT_ID": 36188, "ELEMENT_SET_NO": 999, "REV_AT_EPOCH": 88100, "BSTAR": 0.0017582447, "MEAN_MOTION_DOT": 8.674e-05, "MEAN_MOTION_DDOT": 0}, "tle": {"line1": "1 36188U 99025DTM 25350.02019797  .00008674  00000+0  17582-2 0  9990", "line2": "2 36188  98.5849  90.5626 0047889 294.3883  65.2322 14.60761478881003"}}, "geometry": {"type": "Point", "coordinates": [-49.67179898217642, 74.77384360975208]}}, {"type": "Feature", "properties": {"norad_id": 36198, "name": "FENGYUN 1C DEB", "group": "fengyun-1c-debris", "lat": -69.66596206438693, "lon": -179.36420373062097, "alt_km": 939.9504650698573, "timestamp": "2025-12-21T20:41:08.247842+00:00", "meta": {"OBJECT_NAME": "FENGYUN 1C DEB", "OBJECT_ID": "1999-025DTX", "EPOCH": "2025-12-21T07:33:45.647424", "MEAN_MOTION": 14.07940861, "ECCENTRICITY": 0.0096445, "INCLINATION": 98.6204, "RA_OF_ASC_NODE": 24.2769, "ARG_OF_PERICENTER": 91.323, "MEAN_ANOMALY": 269.8991, "EPHEMERIS_TYPE": 0, "CLASSIFICATION_TYPE": "U", "NORAD_CAT_ID": 36198, "ELEMENT_SET_NO": 999, "REV_AT_EPOCH": 63708, "BSTAR": 0.0012597, "MEAN_MOTION_DOT": 2.192e-05, "MEAN_MOTION_DDOT": 0}, "tle": {"line1": "1 36198U 99025DTX 25355.31511166  .00002192  00000+0  12597-2 0  9995", "line2": "2 36198  98.6204  24.2769 0096445  91.3230 269.8991 14.07940861637082"}}, "geometry": {"type": "Point", "coordinates": [-179.36420373062097, -69.66596206438693]}}, {"type": "Feature", "properties": {"norad_id": 36199, "name": "FENGYUN 1C DEB", "group": "fengyun-1c-debris", "lat": 80.26109543494977, "lon": -105.29355890164389, "alt_km": 746.3260832110145, "timestamp": "2025-12-21T20:41:08.247851+00:00", "meta": {"OBJECT_NAME": "FENGYUN 1C DEB", "OBJECT_ID": "1999-025DTY", "EPOCH": "2025-12-20T20:44:03.107040", "MEAN_MOTION": 14.29660404, "ECCENTRICITY": 0.0092625, "INCLINATION": 98.2888, "RA_OF_ASC_NODE": 15.6138, "ARG_OF_PERICENTER": 43.7189, "MEAN_ANOMALY": 317.1282, "EPHEMERIS_TYPE": 0, "CLASSIFICATION_TYPE": "U", "NORAD_CAT_ID": 36199, "ELEMENT_SET_NO": 999, "REV_AT_EPOCH": 65096, "BSTAR": 0.00019303, "MEAN_MOTION_DOT": 4.77e-06, "MEAN_MOTION_DDOT": 0}, "tle": {"line1": "1 36199U 99025DTY 25354.86392485  .00000477  00000+0  19303-3 0  9993", "line2": "2 36199  98.2888  15.6138 0092625  43.7189 317.1282 14.29660404650969"}}, "geometry": {"type": "Point", "coordinates": [-105.29355890164389, 80.26109543494977]}}, {"type": "Feature", "properties": {"norad_id": 36200, "name": "FENGYUN 1C DEB", "group": "fengyun-1c-debris", "lat": 59.593372723830086, "lon": -92.63391403347387, "alt_km": 708.7235783398037, "timestamp": "2025-12-21T20:41:08.247860+00:00", "meta": {"OBJECT_NAME": "FENGYUN 1C DEB", "OBJECT_ID": "1999-025DTZ", "EPOCH": "2025-12-18T11:29:22.430112", "MEAN_MOTION": 14.58878702, "ECCENTRICITY": 0.0033466, "INCLINATION": 99.3866, "RA_OF_ASC_NODE": 67.1749, "ARG_OF_PERICENTER": 349.3175, "MEAN_ANOMALY": 10.7306, "EPHEMERIS_TYPE": 0, "CLASSIFICATION_TYPE": "U", "NORAD_CAT_ID": 36200, "ELEMENT_SET_NO": 999, "REV_AT_EPOCH": 73444, "BSTAR": 0.0030254, "MEAN_MOTION_DOT": 0.00014247, "MEAN_MOTION_DDOT": 0}, "tle": {"line1": "1 36200U 99025DTZ 25352.47873183  .00014247  00000+0  30254-2 0  9997", "line2": "2 36200  99.3866  67.1749 0033466 349.3175  10.7306 14.58878702734441"}}, "geometry": {"type": "Point", "coordinates": [-92.63391403347387, 59.593372723830086]}}, {"type": "Feature", "properties": {"norad_id": 36203, "name": "FENGYUN 1C DEB", "group": "fengyun-1c-debris", "lat": 12.143347805624165, "lon": -61.16260490558669, "alt_km": 652.558038582175, "timestamp": "2025-12-21T20:41:08.247869+00:00", "meta": {"OBJECT_NAME": "FENGYUN 1C DEB", "OBJECT_ID": "1999-025DUC", "EPOCH": "2025-12-16T02:34:12.047232", "MEAN_MOTION": 14.78467362, "ECCENTRICITY": 0.00836343, "INCLINATION": 99.0958, "RA_OF_ASC_NODE": 294.3166, "ARG_OF_PERICENTER": 138.0502, "MEAN_ANOMALY": 222.7152, "EPHEMERIS_TYPE": 0, "CLASSIFICATION_TYPE": "U", "NORAD_CAT_ID": 36203, "ELEMENT_SET_NO": 999, "REV_AT_EPOCH": 63479, "BSTAR": 0.00071031238, "MEAN_MOTION_DOT": 5.428e-05, "MEAN_MOTION_DDOT": 0}, "tle": {"line1": "1 36203U 99025DUC 25350.10708388  .00005428  00000+0  71031-3 0  9992", "line2": "2 36203  99.0958 294.3166 0083634 138.0502 222.7152 14.78467362634798"}}, "geometry": {"type": "Point", "coordinates": [-61.16260490558669, 12.143347805624165]}}]}